STARLINK-4173           
1 53285U 22086AV  26196.91668981  .00037159  00000+0  11317-2 0  9992
2 53285  53.1596 325.0807 0000712  31.0651 238.4198 15.33657563  5807
STARLINK-4165           
1 53286U 22086AW  26196.91668981 -.00005210  00000+0 -15613-3 0  9992
2 53286  53.1601 325.8511 0001598  68.7421 125.7014 15.31717471  5695
STARLINK-4107           
1 53287U 22086AX  26196.78164898  .00000748  00000+0  34062-4 0  9995
2 53287  53.1619 325.5581 0001155  87.7207 272.3928 15.33549787220575
STARLINK-4162           
1 53288U 22086AY  26196.91668981  .00043391  00000+0  13768-2 0  9992
2 53288  53.1607 325.2417 0001477  92.0188  74.5045 15.32278754  5656
STARLINK-4176           
1 53289U 22086AZ  26196.55635770 -.00000270  00000+0  31689-5 0  9998
2 53289  53.1631 322.3846 0001079  73.3417 286.7705 15.35402511220598
STARLINK-4149           
1 53290U 22086BA  26196.54703989  .00009859  00000+0  61652-3 0  9999
2 53290  53.2176 329.9633 0000611  94.5104 265.5959 15.10020517220491
STARLINK-4166           
1 53291U 22086BB  26196.91668981  .00026414  00000+0  92496-3 0  9999
2 53291  53.1586 321.0442 0001772  46.1079 328.3729 15.29337106  5703
STARLINK-4159           
1 53292U 22086BC  26196.77955004 -.00001265  00000+0 -25344-4 0  9997
2 53292  53.1614 325.5632 0001247  90.7036 269.4110 15.35410260220574
STARLINK-4148           
1 53293U 22086BD  26196.91668981  .00026344  00000+0  83401-3 0  9999
2 53293  53.1601 316.6546 0000710  58.7862 331.9163 15.32598747  5793
STARLINK-4146           
1 53294U 22086BE  26196.91668981  .00016225  00000+0  73315-3 0  9990
2 53294  53.1603 317.2278 0001017 111.4532 163.9539 15.21108129  5741
STARLINK-4522           
1 53388U 22097A   26196.56676434 -.00000311  00000+0 -14824-5 0  9992
2 53388  53.1580 269.7905 0001089  84.8030 275.3086 15.08832223218152
STARLINK-4523           
1 53389U 22097B   26196.49316745 -.00001828  00000+0 -96790-4 0  9996
2 53389  53.1600 270.1239 0001056 103.3761 256.7348 15.08831873217966
STARLINK-4517           
1 53390U 22097C   26196.49684544 -.00001181  00000+0 -56160-4 0  9992
2 53390  53.1596 270.1083 0001182  89.4206 270.6921 15.08831604218119
STARLINK-4521           
1 53391U 22097D   26196.91668981  .00013005  00000+0  71190-3 0  9992
2 53391  53.1589 268.1604 0002610  40.7450 152.6360 15.14565593  5798
STARLINK-4535           
1 53392U 22097E   26196.91668981  .00021690  00000+0  12803-2 0  9997
2 53392  53.1588 268.2084 0001325 100.7612 107.0567 15.11484946  5792
STARLINK-4530           
1 53393U 22097F   26196.91668981 -.00022296  00000+0 -13869-2 0  9996
2 53393  53.1582 268.2204 0001242  86.6682  95.2069 15.08845053  5799
STARLINK-4544           
1 53394U 22097G   26196.91668981  .00027819  00000+0  10651-2 0  9997
2 53394  53.1585 256.9049 0000957 155.4282  79.1122 15.26369768  5758
STARLINK-4534           
1 53395U 22097H   26196.91668981  .00012339  00000+0  65445-3 0  9991
2 53395  53.1593 268.1411 0001899  87.4849 176.1304 15.15739835  5805
STARLINK-4524           
1 53396U 22097J   26196.46372488  .00000332  00000+0  38970-4 0  9990
2 53396  53.1589 270.2556 0001136  77.5500 282.5618 15.08833898217804
STARLINK-4515           
1 53397U 22097K   26196.47476339 -.00000250  00000+0  23712-5 0  9991
2 53397  53.1596 270.2027 0000955  95.8318 264.2783 15.08839617217809
STARLINK-4512           
1 53398U 22097L   26196.52260647  .00000061  00000+0  21881-4 0  9994
2 53398  53.1590 269.9912 0000587  67.3583 292.7471 15.08833227217813
STARLINK-4528           
1 53399U 22097M   26196.46742476  .00000534  00000+0  51640-4 0  9994
2 53399  53.1593 270.2392 0001221  91.5217 268.5915 15.08832774217802
STARLINK-4520           
1 53400U 22097N   26196.51156694 -.00000194  00000+0  59274-5 0  9999
2 53400  53.1598 270.0432 0000979  89.4465 270.6638 15.08831694217810
STARLINK-4525           
1 53401U 22097P   26196.52628516  .00000753  00000+0  65389-4 0  9991
2 53401  53.1591 269.9733 0001225  74.8907 285.2220 15.08834013217816
STARLINK-4499           
1 53402U 22097Q   26196.91668981  .00021225  00000+0  11972-2 0  9999
2 53402  53.1591 268.1160 0003176 102.0715  15.0412 15.13134895  5757
STARLINK-4507           
1 53403U 22097R   26196.91668981  .00014599  00000+0  72332-3 0  9994
2 53403  53.1595 268.3958 0001701  95.7349 170.2569 15.17995378  5800
STARLINK-4509           
1 53404U 22097S   26196.91668981  .00006746  00000+0  22915-3 0  9992
2 53404  53.1656 256.7912 0001582  74.4151  59.4730 15.31670669  5742
STARLINK-4510           
1 53405U 22097T   26196.63668772 -.00000529  00000+0 -15143-4 0  9991
2 53405  53.1593 269.4786 0001091  88.2402 271.8714 15.08831066217831
STARLINK-4533           
1 53406U 22097U   26196.91668981  .00068333  00000+0  22388-2 0  9997
2 53406  53.1585 256.7847 0001231 111.3070 126.9998 15.31045869  5793
STARLINK-4491           
1 53408U 22097W   26196.49041170  .00000152  00000+0  27627-4 0  9995
2 53408  53.1586 260.1384 0001182  87.4007 272.7119 15.08828162217945
