OBJECT_NAME,OBJECT_ID,EPOCH,MEAN_MOTION,ECCENTRICITY,INCLINATION,RA_OF_ASC_NODE,ARG_OF_PERICENTER,MEAN_ANOMALY,EPHEMERIS_TYPE,CLASSIFICATION_TYPE,NORAD_CAT_ID,ELEMENT_SET_NO,REV_AT_EPOCH,BSTAR,MEAN_MOTION_DOT,MEAN_MOTION_DDOT
STARLINK-4173,2022-086AV,2026-07-15T22:00:01.999584,15.33657563,.00007124,53.1596,325.0807,31.0651,238.4198,0,U,53285,999,580,.11316993E-2,.37159E-3,0
STARLINK-4165,2022-086AW,2026-07-15T22:00:01.999584,15.31717471,.00015981,53.1601,325.8511,68.7421,125.7014,0,U,53286,999,569,-.15613183E-3,-.521E-4,0
STARLINK-4107,2022-086AX,2026-07-15T18:45:34.471872,15.33549787,.00011555,53.1619,325.5581,87.7207,272.3928,0,U,53287,999,22057,.34061885E-4,.748E-5,0
STARLINK-4162,2022-086AY,2026-07-15T22:00:01.999584,15.32278754,.00014778,53.1607,325.2417,92.0188,74.5045,0,U,53288,999,565,.13768074E-2,.43391E-3,0
STARLINK-4176,2022-086AZ,2026-07-15T13:21:09.305280,15.35402511,.0001079,53.1631,322.3846,73.3417,286.7705,0,U,53289,999,22059,.31689E-5,-.27E-5,0
STARLINK-4149,2022-086BA,2026-07-15T13:07:44.246496,15.10020517,.00006113,53.2176,329.9633,94.5104,265.5959,0,U,53290,999,22049,.61652352E-3,.9859E-4,0
STARLINK-4166,2022-086BB,2026-07-15T22:00:01.999584,15.29337106,.0001772,53.1586,321.0442,46.1079,328.3729,0,U,53291,999,570,.92496043E-3,.26414E-3,0
STARLINK-4159,2022-086BC,2026-07-15T18:42:33.123456,15.35410260,.00012475,53.1614,325.5632,90.7036,269.4110,0,U,53292,999,22057,-.25344183E-4,-.1265E-4,0
STARLINK-4148,2022-086BD,2026-07-15T22:00:01.999584,15.32598747,.00007102,53.1601,316.6546,58.7862,331.9163,0,U,53293,999,579,.83400653E-3,.26344E-3,0
STARLINK-4146,2022-086BE,2026-07-15T22:00:01.999584,15.21108129,.00010173,53.1603,317.2278,111.4532,163.9539,0,U,53294,999,574,.73314705E-3,.16225E-3,0
STARLINK-4522,2022-097A,2026-07-15T13:36:08.438976,15.08832223,.0001089,53.1580,269.7905,84.8030,275.3086,0,U,53388,999,21815,-.14824E-5,-.311E-5,0
STARLINK-4523,2022-097B,2026-07-15T11:50:09.667680,15.08831873,.0001056,53.1600,270.1239,103.3761,256.7348,0,U,53389,999,21796,-.96790023E-4,-.1828E-4,0
STARLINK-4517,2022-097C,2026-07-15T11:55:27.446016,15.08831604,.00011829,53.1596,270.1083,89.4206,270.6921,0,U,53390,999,21811,-.56159807E-4,-.1181E-4,0
STARLINK-4521,2022-097D,2026-07-15T22:00:01.999584,15.14565593,.00026107,53.1589,268.1604,40.7450,152.6360,0,U,53391,999,579,.71190324E-3,.13005E-3,0
STARLINK-4535,2022-097E,2026-07-15T22:00:01.999584,15.11484946,.0001325,53.1588,268.2084,100.7612,107.0567,0,U,53392,999,579,.12803277E-2,.2169E-3,0
STARLINK-4530,2022-097F,2026-07-15T22:00:01.999584,15.08845053,.00012429,53.1582,268.2204,86.6682,95.2069,0,U,53393,999,579,-.13868596E-2,-.22296E-3,0
STARLINK-4544,2022-097G,2026-07-15T22:00:01.999584,15.26369768,.00009572,53.1585,256.9049,155.4282,79.1122,0,U,53394,999,575,.10650997E-2,.27819E-3,0
STARLINK-4534,2022-097H,2026-07-15T22:00:01.999584,15.15739835,.00018997,53.1593,268.1411,87.4849,176.1304,0,U,53395,999,580,.65444531E-3,.12339E-3,0
STARLINK-4524,2022-097J,2026-07-15T11:07:45.829632,15.08833898,.00011361,53.1589,270.2556,77.5500,282.5618,0,U,53396,999,21780,.3897022E-4,.332E-5,0
STARLINK-4515,2022-097K,2026-07-15T11:23:39.556896,15.08839617,.00009553,53.1596,270.2027,95.8318,264.2783,0,U,53397,999,21780,.2371173E-5,-.25E-5,0
STARLINK-4512,2022-097L,2026-07-15T12:32:33.199008,15.08833227,.00005873,53.1590,269.9912,67.3583,292.7471,0,U,53398,999,21781,.21881339E-4,.61E-6,0
STARLINK-4528,2022-097M,2026-07-15T11:13:05.499264,15.08832774,.00012218,53.1593,270.2392,91.5217,268.5915,0,U,53399,999,21780,.51639797E-4,.534E-5,0
STARLINK-4520,2022-097N,2026-07-15T12:16:39.383616,15.08831694,.00009795,53.1598,270.0432,89.4465,270.6638,0,U,53400,999,21781,.5927372E-5,-.194E-5,0
STARLINK-4525,2022-097P,2026-07-15T12:37:51.037824,15.08834013,.00012257,53.1591,269.9733,74.8907,285.2220,0,U,53401,999,21781,.65388757E-4,.753E-5,0
STARLINK-4499,2022-097Q,2026-07-15T22:00:01.999584,15.13134895,.0003176,53.1591,268.1160,102.0715,15.0412,0,U,53402,999,575,.11972114E-2,.21225E-3,0
STARLINK-4507,2022-097R,2026-07-15T22:00:01.999584,15.17995378,.0001701,53.1595,268.3958,95.7349,170.2569,0,U,53403,999,580,.72331737E-3,.14599E-3,0
STARLINK-4509,2022-097S,2026-07-15T22:00:01.999584,15.31670669,.00015827,53.1656,256.7912,74.4151,59.4730,0,U,53404,999,574,.22915286E-3,.6746E-4,0
STARLINK-4510,2022-097T,2026-07-15T15:16:49.819008,15.08831066,.00010918,53.1593,269.4786,88.2402,271.8714,0,U,53405,999,21783,-.15142898E-4,-.529E-5,0
STARLINK-4533,2022-097U,2026-07-15T22:00:01.999584,15.31045869,.00012317,53.1585,256.7847,111.3070,126.9998,0,U,53406,999,579,.22387653E-2,.68333E-3,0
STARLINK-4491,2022-097W,2026-07-15T11:46:11.570880,15.08828162,.00011825,53.1586,260.1384,87.4007,272.7119,0,U,53408,999,21794,.27626589E-4,.152E-5,0
